{
  "type": "FeatureCollection",
  "features": [
    {
      "type": "Feature",
      "properties": { "ST_NM": "Tamil Nadu", "ST_CODE": "TN" },
      "geometry": {
        "type": "Polygon",
        "coordinates": [
          [
            [76.24, 8.08],
            [77.54, 8.12],
            [78.12, 8.85],
            [79.22, 9.15],
            [79.88, 10.28],
            [80.34, 13.08],
            [80.22, 13.56],
            [79.52, 13.48],
            [78.62, 12.82],
            [77.22, 11.95],
            [76.72, 11.55],
            [76.24, 11.22],
            [76.24, 8.08]
          ]
        ]
      }
    },
    {
      "type": "Feature",
      "properties": { "ST_NM": "Kerala", "ST_CODE": "KL" },
      "geometry": {
        "type": "Polygon",
        "coordinates": [
          [
            [74.86, 12.79],
            [75.42, 12.22],
            [76.24, 11.22],
            [76.72, 11.55],
            [77.22, 11.95],
            [77.58, 8.29],
            [76.92, 8.48],
            [76.12, 9.85],
            [75.42, 11.25],
            [74.86, 12.79]
          ]
        ]
      }
    },
    {
      "type": "Feature",
      "properties": { "ST_NM": "Karnataka", "ST_CODE": "KA" },
      "geometry": {
        "type": "Polygon",
        "coordinates": [
          [
            [74.05, 14.82],
            [74.52, 15.65],
            [75.12, 16.85],
            [76.22, 17.85],
            [77.42, 18.45],
            [78.58, 17.15],
            [78.22, 14.25],
            [77.62, 12.85],
            [76.72, 11.55],
            [75.42, 12.22],
            [74.05, 14.82]
          ]
        ]
      }
    },
    {
      "type": "Feature",
      "properties": { "ST_NM": "Andhra Pradesh", "ST_CODE": "AP" },
      "geometry": {
        "type": "Polygon",
        "coordinates": [
          [
            [76.84, 14.82],
            [78.22, 14.25],
            [78.58, 17.15],
            [80.12, 16.52],
            [82.22, 17.22],
            [84.77, 19.14],
            [83.42, 18.25],
            [80.34, 13.56],
            [79.52, 13.48],
            [76.84, 14.82]
          ]
        ]
      }
    },
    {
      "type": "Feature",
      "properties": { "ST_NM": "Telangana", "ST_CODE": "TS" },
      "geometry": {
        "type": "Polygon",
        "coordinates": [
          [
            [77.24, 16.12],
            [78.58, 17.15],
            [80.12, 16.52],
            [81.32, 18.22],
            [80.42, 19.91],
            [78.22, 19.82],
            [77.24, 18.15],
            [77.24, 16.12]
          ]
        ]
      }
    },
    {
      "type": "Feature",
      "properties": { "ST_NM": "Maharashtra", "ST_CODE": "MH" },
      "geometry": {
        "type": "Polygon",
        "coordinates": [
          [
            [72.66, 18.92],
            [72.82, 20.12],
            [73.82, 21.62],
            [76.42, 22.03],
            [80.89, 21.15],
            [80.42, 19.91],
            [78.22, 19.82],
            [76.22, 17.85],
            [74.52, 15.65],
            [72.66, 18.92]
          ]
        ]
      }
    },
    {
      "type": "Feature",
      "properties": { "ST_NM": "Gujarat", "ST_CODE": "GJ" },
      "geometry": {
        "type": "Polygon",
        "coordinates": [
          [
            [68.16, 23.65],
            [70.12, 24.70],
            [72.82, 24.12],
            [74.47, 22.15],
            [73.82, 21.62],
            [72.82, 20.12],
            [70.12, 20.82],
            [68.82, 22.25],
            [68.16, 23.65]
          ]
        ]
      }
    },
    {
      "type": "Feature",
      "properties": { "ST_NM": "West Bengal", "ST_CODE": "WB" },
      "geometry": {
        "type": "Polygon",
        "coordinates": [
          [
            [85.83, 22.15],
            [86.82, 24.12],
            [88.22, 27.22],
            [89.88, 26.52],
            [88.82, 22.82],
            [88.12, 21.53],
            [87.12, 21.82],
            [85.83, 22.15]
          ]
        ]
      }
    },
    {
      "type": "Feature",
      "properties": { "ST_NM": "Delhi", "ST_CODE": "DL" },
      "geometry": {
        "type": "Polygon",
        "coordinates": [
          [
            [76.84, 28.40],
            [77.34, 28.40],
            [77.34, 28.88],
            [76.84, 28.88],
            [76.84, 28.40]
          ]
        ]
      }
    },
    {
      "type": "Feature",
      "properties": { "ST_NM": "Rajasthan", "ST_CODE": "RJ" },
      "geometry": {
        "type": "Polygon",
        "coordinates": [
          [
            [69.50, 26.82],
            [70.12, 24.70],
            [74.47, 24.12],
            [77.42, 26.82],
            [78.27, 30.20],
            [74.22, 29.82],
            [71.12, 28.22],
            [69.50, 26.82]
          ]
        ]
      }
    }
  ]
}
